UNKNOWN                 
1 82524U          25303.61556895  .00012896  00000+0  41919-2 0  9990
2 82524  73.2819 264.3350 0135484  32.1719  79.0830 14.33739963570854
UNKNOWN                 
1 82529U          25299.99424109  .00000269  00000+0  48016-3 0  9999
2 82529  99.7919  24.8601 0234679 354.9426 183.4235 13.41050414583473
UNKNOWN                 
1 82560U          25301.07854564  .00001809  00000+0  14952-2 0  9991
2 82560  99.9836 240.2747 0011981  58.1321 319.3804 13.90445136605525
UNKNOWN                 
1 82597U          25303.58693488  .00003869  00000+0  13046-2 0  9996
2 82597  66.7703 261.5917 0095278 337.2874  22.4023 14.35472466622788
UNKNOWN                 
1 82617U          25302.76369301  .00000895  00000+0  23959-3 0  9993
2 82617  74.0272 326.1798 0040091 280.5269  79.1375 14.49299104630453
UNKNOWN                 
1 82627U          25302.89885696  .00000699  00000+0  18072-2 0  9999
2 82627  82.4734 279.9007 0008319 208.0711 180.5201 13.16211052573069
UNKNOWN                 
1 82642U          25301.70487147  .00003096  00000+0  17268-2 0  9994
2 82642  98.9704 212.5670 0138374   3.2692 356.9349 14.06910870609800
UNKNOWN                 
1 82683U          25303.42791594  .00002506  00000+0  95653-3 0  9994
2 82683  98.1777  15.6224 0211940 162.4940 198.3691 14.19950345456127
UNKNOWN                 
1 82693U          25298.62987414  .00003434  00000+0  40035-2 0  9992
2 82693 100.5306 257.7353 0038060 140.4369 219.9562 13.69135328547170
UNKNOWN                 
1 82698U          25296.25561719  .00002200  00000+0  13326-2 0  9993
2 82698  61.6138 285.6253 0685656 270.7458  81.5094 13.29205577531669
UNKNOWN                 
1 82708U          25296.48286510  .00001233  00000+0  48438-2 0  9990
2 82708 102.1689 134.7870 0061886  26.2431 334.1775 12.90441701517036
UNKNOWN                 
1 82729U          25303.21120587  .00001628  00000+0  56092-2 0  9997
2 82729  67.9680 221.1356 0827576  40.7208 325.2736 12.17684184529907
